NORAD_CAT_ID,OBJECT_NAME,OBJECT_TYPE,EPOCH,MEAN_MOTION,ECCENTRICITY,INCLINATION,RA_OF_ASC_NODE,ARG_OF_PERICENTER,MEAN_ANOMALY,BSTAR,MEAN_MOTION_DOT,MEAN_MOTION_DDOT,TLE_LINE0,TLE_LINE1,TLE_LINE2,SEMIMAJOR_AXIS,PERIOD,APOGEE,PERIGEE,DECAYED
52300.0,STARLINK-3769,PAYLOAD,2022-05-04 20:00:01,15.73199371,0.0001513,53.2153,309.7142,54.5732,231.9909,0.00044959,0.0006295,0.0,0 STARLINK-3769,1 52300U 22041AR  22124.83335648  .00062950  00000-0  44959-3 0  9996,2 52300  53.2153 309.7142 0001513  54.5732 231.9909 15.73199371  3308,6727.897,91.533,350.78,348.744,0.0
52300.0,STARLINK-3769,PAYLOAD,2022-05-04 22:00:01,15.73191388,0.0001458,53.2154,309.3021,51.6733,347.1298,0.00076101,0.0010752,0.0,0 STARLINK-3769,1 52300U 22041AR  22124.91668981  .00107520  00000-0  76101-3 0  9991,2 52300  53.2154 309.3021 0001458  51.6733 347.1298 15.73191388  2746,6727.92,91.534,350.766,348.80400000000014,0.0
52300.0,STARLINK-3769,PAYLOAD,2022-05-05 14:00:01,15.73260839,0.0001208,53.2152,306.0013,54.5362,162.1395,-0.00076368,-0.00106724,0.0,0 STARLINK-3769,1 52300U 22041AR  22125.58334491 -.00106724  00000-0 -76368-3 0  9993,2 52300  53.2152 306.0013 0001208  54.5362 162.1395 15.73260839  3429,6727.722,91.53,350.399,348.774,0.0
52300.0,STARLINK-3769,PAYLOAD,2022-05-05 20:00:01,15.73195205,0.0001375,53.215,304.7656,43.6318,149.8507,-0.000279,-0.00039584,0.0,0 STARLINK-3769,1 52300U 22041AR  22125.83335648 -.00039584  00000-0 -27900-3 0  9993,2 52300  53.2150 304.7656 0001375  43.6318 149.8507 15.73195205  3454,6727.909000000002,91.533,350.699,348.849,0.0
52300.0,STARLINK-3769,PAYLOAD,2022-05-05 22:00:00,15.7316967,0.000137,53.2149,304.3536,41.9217,263.7319,-1.503e-05,-2.726e-05,0.0,0 STARLINK-3769,1 52300U 22041AR  22125.91667824 -.00002726  00000-0 -15030-4 0  9996,2 52300  53.2149 304.3536 0001370  41.9217 263.7319 15.73169670  2890,6727.982,91.535,350.76800000000014,348.925,0.0
52300.0,STARLINK-3769,PAYLOAD,2022-05-06 06:00:00,15.73208315,0.0001184,53.2156,302.7026,42.7552,351.7916,-0.00020442,-0.00029219,0.0,0 STARLINK-3769,1 52300U 22041AR  22126.25001157 -.00029219  00000-0 -20442-3 0  9993,2 52300  53.2156 302.7026 0001184  42.7552 351.7916 15.73208315  3520,6727.871,91.533,350.533,348.94,0.0
52300.0,STARLINK-3769,PAYLOAD,2022-05-06 14:00:01,15.73236125,0.0001234,53.2165,301.0531,38.9916,84.4868,-0.0030907,-0.00414326,0.0,0 STARLINK-3769,1 52300U 22041AR  22126.58334491 -.00414326  00000-0 -30907-2 0  9992,2 52300  53.2165 301.0531 0001234  38.9916  84.4868 15.73236125  3571,6727.792,91.531,350.487,348.827,0.0
52300.0,STARLINK-3769,PAYLOAD,2022-05-06 20:00:01,15.73219458,0.0001614,53.2152,299.8171,45.2324,54.9392,-0.00011261,-0.00016407,0.0,0 STARLINK-3769,1 52300U 22041AR  22126.83334491 -.00016407  00000-0 -11261-3 0  9991,2 52300  53.2152 299.8171 0001614  45.2324  54.9392 15.73219458  3616,6727.84,91.532,350.791,348.619,0.0
52300.0,STARLINK-3769,PAYLOAD,2022-05-07 14:00:01,15.73237301,0.0001696,53.215,296.1045,53.4044,336.8705,-0.00043523,-0.00061358,0.0,0 STARLINK-3769,1 52300U 22041AR  22127.58334491 -.00061358  00000-0 -43523-3 0  9995,2 52300  53.2150 296.1045 0001696  53.4044 336.8705 15.73237301  3161,6727.7890000000025,91.531,350.795,348.51300000000015,0.0
52300.0,STARLINK-3769,PAYLOAD,2022-05-07 22:00:00,15.73163099,0.0001783,53.2144,294.4566,45.4209,73.7984,0.00016745,0.00022908,0.0,0 STARLINK-3769,1 52300U 22041AR  22127.91667824  .00022908  00000-0  16745-3 0  9993,2 52300  53.2144 294.4566 0001783  45.4209  73.7984 15.73163099  3218,6728.0,91.535,351.065,348.666,0.0
52300.0,STARLINK-3769,PAYLOAD,2022-05-08 04:00:00,15.73173275,0.0001633,53.2144,293.2178,47.312,48.5738,0.00015223,0.00020773,0.0,0 STARLINK-3769,1 52300U 22041AR  22128.16667824  .00020773  00000-0  15223-3 0  9999,2 52300  53.2144 293.2178 0001633  47.3120  48.5738 15.73173275  3822,6727.971,91.535,350.935,348.73800000000006,0.0
52300.0,STARLINK-3769,PAYLOAD,2022-05-08 14:00:01,15.73188505,0.0001789,53.2147,291.156,51.9658,245.0473,-0.00018444,-0.00026413,0.0,0 STARLINK-3769,1 52300U 22041AR  22128.58334491 -.00026413  00000-0 -18444-3 0  9993,2 52300  53.2147 291.1560 0001789  51.9658 245.0473 15.73188505  3323,6727.928000000001,91.534,350.997,348.589,0.0
52300.0,STARLINK-3769,PAYLOAD,2022-05-08 22:00:00,15.73168099,0.0001975,53.2144,289.508,44.5487,341.3848,0.00074457,0.0010505,0.0,0 STARLINK-3769,1 52300U 22041AR  22128.91667824  .00105050  00000-0  74457-3 0  9998,2 52300  53.2144 289.5080 0001975  44.5487 341.3848 15.73168099  3370,6727.986,91.535,351.18,348.522,0.0
52300.0,STARLINK-3769,PAYLOAD,2022-05-09 14:00:01,15.73247727,0.0001641,53.2142,286.2076,40.0214,163.8632,-0.0004647,-0.00065468,0.0,0 STARLINK-3769,1 52300U 22041AR  22129.58335648 -.00065468  00000-0 -46470-3 0  9992,2 52300  53.2142 286.2076 0001641  40.0214 163.8632 15.73247727  4056,6727.759,91.53,350.728,348.52,0.0
52300.0,STARLINK-3769,PAYLOAD,2022-05-09 22:00:00,15.73171736,0.0001761,53.2135,284.5594,29.6253,263.1746,0.00070391,0.00099225,0.0,0 STARLINK-3769,1 52300U 22041AR  22129.91667824  .00099225  00000-0  70391-3 0  9998,2 52300  53.2135 284.5594 0001761  29.6253 263.1746 15.73171736  4105,6727.976,91.535,351.026,348.656,0.0
52300.0,STARLINK-3769,PAYLOAD,2022-05-10 06:00:00,15.73226074,0.0001551999999999,53.2136,282.9075,35.6125,346.11,-0.00022071,-0.00031515,0.0,0 STARLINK-3769,1 52300U 22041AR  22130.25001157 -.00031515  00000-0 -22071-3 0  9990,2 52300  53.2136 282.9075 0001552  35.6125 346.1100 15.73226074  4152,6727.821,91.532,350.73,348.642,0.0
52300.0,STARLINK-3769,PAYLOAD,2022-05-10 14:00:01,15.73229043,0.0001728,53.2138,281.2589,36.4502,74.2127,-0.00057903,-0.00081208,0.0,0 STARLINK-3769,1 52300U 22041AR  22130.58334491 -.00081208  00000-0 -57903-3 0  9992,2 52300  53.2138 281.2589 0001728  36.4502  74.2127 15.73229043  3649,6727.812,91.531,350.84,348.515,0.0
52300.0,STARLINK-3769,PAYLOAD,2022-05-10 19:37:50,15.73211668,0.0001633,53.2139,280.0965,36.8144,323.2988,1.9186e-05,2.074e-05,0.0,0 STARLINK-3769,1 52300U 22041AR  22130.81794577  .00002074  00000-0  19186-4 0  9997,2 52300  53.2139 280.0965 0001633  36.8144 323.2988 15.73211668  4249,6727.861999999999,91.533,350.826,348.62800000000016,0.0
52300.0,STARLINK-3769,PAYLOAD,2022-05-11 20:00:01,15.73206232,0.0002013,53.2139,275.0742,28.6651,325.473,-8.902700000000001e-05,-0.000131,0.0,0 STARLINK-3769,1 52300U 22041AR  22131.83334491 -.00013100  00000-0 -89027-4 0  9990,2 52300  53.2139 275.0742 0002013  28.6651 325.4730 15.73206232  4397,6727.877,91.533,351.097,348.38800000000015,0.0
52300.0,STARLINK-3769,PAYLOAD,2022-05-11 22:00:00,15.73203126,0.0001997,53.2138,274.6614,26.641,79.7316,-7.4891e-05,-0.0001112,0.0,0 STARLINK-3769,1 52300U 22041AR  22131.91667824 -.00011120  00000-0 -74891-4 0  9991,2 52300  53.2138 274.6614 0001997  26.6410  79.7316 15.73203126  1306,6727.886,91.533,351.095,348.408,0.0
52300.0,STARLINK-3769,PAYLOAD,2022-05-12 14:00:01,15.73277239,0.0001858,53.2152,271.3613,24.3011,259.9221,-0.00054506,-0.0007667999999999,0.0,0 STARLINK-3769,1 52300U 22041AR  22132.58334491 -.00076680  00000-0 -54506-3 0  9998,2 52300  53.2152 271.3613 0001858  24.3011 259.9221 15.73277239  1306,6727.675,91.529,350.79,348.29,0.0
52300.0,STARLINK-3769,PAYLOAD,2022-05-12 20:00:01,15.73241509,0.0002073,53.2153,270.125,20.3639,240.6438,-0.0001134,-0.00016535,0.0,0 STARLINK-3769,1 52300U 22041AR  22132.83334491 -.00016535  00000-0 -11340-3 0  9998,2 52300  53.2153 270.1250 0002073  20.3639 240.6438 15.73241509  4551,6727.776999999999,91.531,351.037,348.247,0.0
52300.0,STARLINK-3769,PAYLOAD,2022-05-12 22:00:00,15.73243925,0.0002081,53.2151,269.7122,19.7557,353.4949,-0.00019894,-0.00028502,0.0,0 STARLINK-3769,1 52300U 22041AR  22132.91667824 -.00028502  00000-0 -19894-3 0  9995,2 52300  53.2151 269.7122 0002081  19.7557 353.4949 15.73243925  1305,6727.77,91.531,351.035,348.235,0.0
52300.0,STARLINK-3769,PAYLOAD,2022-05-13 06:00:00,15.73202777,0.0001959,53.2152,268.0606,27.2847,74.9136,-8.332299999999999e-05,-0.000123,0.0,0 STARLINK-3769,1 52300U 22041AR  22133.25001157 -.00012300  00000-0 -83323-4 0  9992,2 52300  53.2152 268.0606 0001959  27.2847  74.9136 15.73202777  4625,6727.887,91.533,351.07,348.434,0.0
52300.0,STARLINK-3769,PAYLOAD,2022-05-13 14:00:01,15.73225123,0.0002186,53.2152,266.4125,28.2721,162.8545,-0.00067459,-0.00094354,0.0,0 STARLINK-3769,1 52300U 22041AR  22133.58334491 -.00094354  00000-0 -67459-3 0  9998,2 52300  53.2152 266.4125 0002186  28.2721 162.8545 15.73225123  1301,6727.824000000001,91.532,351.159,348.218,0.0
52300.0,STARLINK-3769,PAYLOAD,2022-05-13 22:00:00,15.73158236,0.0002318,53.2146,264.7632,25.3532,254.6992,-0.00021707,-0.00030923,0.0,0 STARLINK-3769,1 52300U 22041AR  22133.91667824 -.00030923  00000-0 -21707-3 0  9992,2 52300  53.2146 264.7632 0002318  25.3532 254.6992 15.73158236  1309,6728.014,91.536,351.439,348.32,0.0
52300.0,STARLINK-3769,PAYLOAD,2022-05-14 06:00:00,15.73106529,0.0002132,53.2149,263.1118,30.8574,338.0574,0.00076242,0.0010733,0.0,0 STARLINK-3769,1 52300U 22041AR  22134.25001157  .00107330  00000-0  76242-3 0  9990,2 52300  53.2149 263.1118 0002132  30.8574 338.0574 15.73106529  4781,6728.1619999999975,91.539,351.461,348.592,0.0
52300.0,STARLINK-3769,PAYLOAD,2022-05-14 14:00:01,15.73203904,0.000235,53.2152,261.4641,28.1625,69.6356,0.00030877,0.00042945,0.0,0 STARLINK-3769,1 52300U 22041AR  22134.58334491  .00042945  00000-0  30877-3 0  9990,2 52300  53.2152 261.4641 0002350  28.1625  69.6356 15.73203904  1301,6727.884,91.533,351.33,348.168,0.0
52300.0,STARLINK-3769,PAYLOAD,2022-05-14 22:00:00,15.73287225,0.000242,53.2152,259.8146,24.2534,162.4887,-0.00024693,-0.00035267,0.0,0 STARLINK-3769,1 52300U 22041AR  22134.91667824 -.00035267  00000-0 -24693-3 0  9996,2 52300  53.2152 259.8146 0002420  24.2534 162.4887 15.73287225  1305,6727.647,91.528,351.14,347.8830000000001,0.0
